{"fetched_at":"2026-07-19T17:31:09.790Z","source":"https://celestrak.org/NORAD/elements/gp.php?GROUP=oneweb&FORMAT=JSON","constellation":"oneweb","records":[{"OBJECT_NAME":"ONEWEB-0564","OBJECT_ID":"2023-029F","EPOCH":"2026-07-19T04:19:55.597440","CLASSIFICATION_TYPE":"U","MEAN_MOTION":13.2077327,"ECCENTRICITY":0.00019646,"INCLINATION":87.9166,"RA_OF_ASC_NODE":268.075,"ARG_OF_PERICENTER":101.4197,"MEAN_ANOMALY":258.7157,"EPHEMERIS_TYPE":0,"NORAD_CAT_ID":55801,"ELEMENT_SET_NO":999,"REV_AT_EPOCH":16537,"BSTAR":-0.0013911954,"MEAN_MOTION_DOT":-0.00000553,"MEAN_MOTION_DDOT":0},{"OBJECT_NAME":"ONEWEB-0638","OBJECT_ID":"2023-029G","EPOCH":"2026-07-19T05:02:50.014176","CLASSIFICATION_TYPE":"U","MEAN_MOTION":13.14504688,"ECCENTRICITY":0.00015066,"INCLINATION":87.8953,"RA_OF_ASC_NODE":283.3687,"ARG_OF_PERICENTER":106.322,"MEAN_ANOMALY":253.8076,"EPHEMERIS_TYPE":0,"NORAD_CAT_ID":55802,"ELEMENT_SET_NO":999,"REV_AT_EPOCH":16360,"BSTAR":0.00040931983,"MEAN_MOTION_DOT":0.00000165,"MEAN_MOTION_DDOT":0},{"OBJECT_NAME":"ONEWEB-0639","OBJECT_ID":"2023-029H","EPOCH":"2026-07-19T06:05:48.905664","CLASSIFICATION_TYPE":"U","MEAN_MOTION":13.19724598,"ECCENTRICITY":0.0002737,"INCLINATION":87.9185,"RA_OF_ASC_NODE":298.5907,"ARG_OF_PERICENTER":116.3892,"MEAN_ANOMALY":243.7522,"EPHEMERIS_TYPE":0,"NORAD_CAT_ID":55803,"ELEMENT_SET_NO":999,"REV_AT_EPOCH":16313,"BSTAR":-0.00048845932,"MEAN_MOTION_DOT":-0.00000183,"MEAN_MOTION_DDOT":0},{"OBJECT_NAME":"ONEWEB-0640","OBJECT_ID":"2023-029J","EPOCH":"2026-07-19T05:16:32.764224","CLASSIFICATION_TYPE":"U","MEAN_MOTION":13.14503052,"ECCENTRICITY":0.0001693,"INCLINATION":87.8953,"RA_OF_ASC_NODE":283.3576,"ARG_OF_PERICENTER":119.1697,"MEAN_ANOMALY":240.9603,"EPHEMERIS_TYPE":0,"NORAD_CAT_ID":55804,"ELEMENT_SET_NO":999,"REV_AT_EPOCH":16362,"BSTAR":0.00071081717,"MEAN_MOTION_DOT":0.00000276,"MEAN_MOTION_DDOT":0},{"OBJECT_NAME":"ONEWEB-0641","OBJECT_ID":"2023-029K","EPOCH":"2026-07-19T05:59:01.119264","CLASSIFICATION_TYPE":"U","MEAN_MOTION":13.19727396,"ECCENTRICITY":0.0001921,"INCLINATION":87.92,"RA_OF_ASC_NODE":298.5834,"ARG_OF_PERICENTER":104.487,"MEAN_ANOMALY":255.6476,"EPHEMERIS_TYPE":0,"NORAD_CAT_ID":55805,"ELEMENT_SET_NO":999,"REV_AT_EPOCH":16314,"BSTAR":-0.00014023837,"MEAN_MOTION_DOT":-4.3e-7,"MEAN_MOTION_DDOT":0},{"OBJECT_NAME":"ONEWEB-0642","OBJECT_ID":"2023-029L","EPOCH":"2026-07-19T05:52:11.367264","CLASSIFICATION_TYPE":"U","MEAN_MOTION":13.19726514,"ECCENTRICITY":0.00027667,"INCLINATION":87.9187,"RA_OF_ASC_NODE":298.5937,"ARG_OF_PERICENTER":110.4071,"MEAN_ANOMALY":249.7359,"EPHEMERIS_TYPE":0,"NORAD_CAT_ID":55806,"ELEMENT_SET_NO":999,"REV_AT_EPOCH":16313,"BSTAR":0.00013959699,"MEAN_MOTION_DOT":6.9e-7,"MEAN_MOTION_DDOT":0},{"OBJECT_NAME":"ONEWEB-0643","OBJECT_ID":"2023-029M","EPOCH":"2026-07-19T04:33:09.664416","CLASSIFICATION_TYPE":"U","MEAN_MOTION":13.14502808,"ECCENTRICITY":0.00027007,"INCLINATION":87.8955,"RA_OF_ASC_NODE":283.3509,"ARG_OF_PERICENTER":103.9971,"MEAN_ANOMALY":256.1459,"EPHEMERIS_TYPE":0,"NORAD_CAT_ID":55807,"ELEMENT_SET_NO":999,"REV_AT_EPOCH":16359,"BSTAR":-0.00045090499,"MEAN_MOTION_DOT":-0.00000154,"MEAN_MOTION_DDOT":0},{"OBJECT_NAME":"ONEWEB-0644","OBJECT_ID":"2023-029N","EPOCH":"2026-07-19T05:45:22.238208","CLASSIFICATION_TYPE":"U","MEAN_MOTION":13.19726073,"ECCENTRICITY":0.00023496,"INCLINATION":87.9183,"RA_OF_ASC_NODE":298.5955,"ARG_OF_PERICENTER":105.2324,"MEAN_ANOMALY":254.9068,"EPHEMERIS_TYPE":0,"NORAD_CAT_ID":55808,"ELEMENT_SET_NO":999,"REV_AT_EPOCH":16313,"BSTAR":0.00014055626,"MEAN_MOTION_DOT":6.9e-7,"MEAN_MOTION_DDOT":0},{"OBJECT_NAME":"ONEWEB-0645","OBJECT_ID":"2023-029P","EPOCH":"2026-07-19T06:17:12.591456","CLASSIFICATION_TYPE":"U","MEAN_MOTION":13.19726357,"ECCENTRICITY":0.00020819,"INCLINATION":87.9182,"RA_OF_ASC_NODE":298.5885,"ARG_OF_PERICENTER":112.3289,"MEAN_ANOMALY":247.8065,"EPHEMERIS_TYPE":0,"NORAD_CAT_ID":55809,"ELEMENT_SET_NO":999,"REV_AT_EPOCH":16313,"BSTAR":-0.000043136207,"MEAN_MOTION_DOT":-4e-8,"MEAN_MOTION_DDOT":0},{"OBJECT_NAME":"ONEWEB-0646","OBJECT_ID":"2023-029Q","EPOCH":"2026-07-19T04:53:02.189184","CLASSIFICATION_TYPE":"U","MEAN_MOTION":13.19726689,"ECCENTRICITY":0.0002259,"INCLINATION":87.9183,"RA_OF_ASC_NODE":298.5998,"ARG_OF_PERICENTER":104.5982,"MEAN_ANOMALY":255.5401,"EPHEMERIS_TYPE":0,"NORAD_CAT_ID":55810,"ELEMENT_SET_NO":999,"REV_AT_EPOCH":16311,"BSTAR":-0.000045855794,"MEAN_MOTION_DOT":-5e-8,"MEAN_MOTION_DDOT":0},{"OBJECT_NAME":"ONEWEB-0648","OBJECT_ID":"2023-029R","EPOCH":"2026-07-19T05:37:05.459808","CLASSIFICATION_TYPE":"U","MEAN_MOTION":13.1450377,"ECCENTRICITY":0.00025235,"INCLINATION":87.8967,"RA_OF_ASC_NODE":283.3189,"ARG_OF_PERICENTER":120.1707,"MEAN_ANOMALY":239.9673,"EPHEMERIS_TYPE":0,"NORAD_CAT_ID":55811,"ELEMENT_SET_NO":999,"REV_AT_EPOCH":16360,"BSTAR":0.00057612642,"MEAN_MOTION_DOT":0.00000226,"MEAN_MOTION_DDOT":0},{"OBJECT_NAME":"ONEWEB-0649","OBJECT_ID":"2023-029S","EPOCH":"2026-07-19T05:29:25.529280","CLASSIFICATION_TYPE":"U","MEAN_MOTION":13.19725207,"ECCENTRICITY":0.00021192,"INCLINATION":87.9186,"RA_OF_ASC_NODE":298.593,"ARG_OF_PERICENTER":107.6519,"MEAN_ANOMALY":252.4845,"EPHEMERIS_TYPE":0,"NORAD_CAT_ID":55812,"ELEMENT_SET_NO":999,"REV_AT_EPOCH":16315,"BSTAR":-0.00033349431,"MEAN_MOTION_DOT":-0.00000121,"MEAN_MOTION_DDOT":0},{"OBJECT_NAME":"ONEWEB-0650","OBJECT_ID":"2023-029T","EPOCH":"2026-07-19T05:22:36.607584","CLASSIFICATION_TYPE":"U","MEAN_MOTION":13.19725207,"ECCENTRICITY":0.00025483,"INCLINATION":87.9183,"RA_OF_ASC_NODE":298.5965,"ARG_OF_PERICENTER":109.4832,"MEAN_ANOMALY":250.6576,"EPHEMERIS_TYPE":0,"NORAD_CAT_ID":55813,"ELEMENT_SET_NO":999,"REV_AT_EPOCH":16312,"BSTAR":-0.000067150911,"MEAN_MOTION_DOT":-1.4e-7,"MEAN_MOTION_DDOT":0},{"OBJECT_NAME":"ONEWEB-0652","OBJECT_ID":"2023-029U","EPOCH":"2026-07-19T05:09:41.698944","CLASSIFICATION_TYPE":"U","MEAN_MOTION":13.14502856,"ECCENTRICITY":0.00019434,"INCLINATION":87.8966,"RA_OF_ASC_NODE":283.3295,"ARG_OF_PERICENTER":93.6681,"MEAN_ANOMALY":266.4671,"EPHEMERIS_TYPE":0,"NORAD_CAT_ID":55814,"ELEMENT_SET_NO":999,"REV_AT_EPOCH":16357,"BSTAR":0.00067117422,"MEAN_MOTION_DOT":0.00000262,"MEAN_MOTION_DDOT":0},{"OBJECT_NAME":"ONEWEB-0653","OBJECT_ID":"2023-029V","EPOCH":"2026-07-19T04:46:51.237696","CLASSIFICATION_TYPE":"U","MEAN_MOTION":13.14502382,"ECCENTRICITY":0.00019455,"INCLINATION":87.8966,"RA_OF_ASC_NODE":283.3307,"ARG_OF_PERICENTER":100.0965,"MEAN_ANOMALY":260.0384,"EPHEMERIS_TYPE":0,"NORAD_CAT_ID":55815,"ELEMENT_SET_NO":999,"REV_AT_EPOCH":16360,"BSTAR":-0.000067044191,"MEAN_MOTION_DOT":-1.2e-7,"MEAN_MOTION_DDOT":0},{"OBJECT_NAME":"ONEWEB-0654","OBJECT_ID":"2023-029W","EPOCH":"2026-07-19T04:39:59.997888","CLASSIFICATION_TYPE":"U","MEAN_MOTION":13.14502608,"ECCENTRICITY":0.00017719,"INCLINATION":87.8965,"RA_OF_ASC_NODE":283.3278,"ARG_OF_PERICENTER":92.5334,"MEAN_ANOMALY":267.5999,"EPHEMERIS_TYPE":0,"NORAD_CAT_ID":55816,"ELEMENT_SET_NO":999,"REV_AT_EPOCH":16362,"BSTAR":-0.00015372853,"MEAN_MOTION_DOT":-4.4e-7,"MEAN_MOTION_DDOT":0}]}
