[
  {
    "name": "ONEWEB-0564",
    "noradId": "55801",
    "line1": "1 55801U 23029F   26200.18050460 -.00000553  00000+0 -13912-2 0  9991",
    "line2": "2 55801  87.9166 268.0750 0001964 101.4197 258.7157 13.20773270165378"
  },
  {
    "name": "ONEWEB-0638",
    "noradId": "55802",
    "line1": "1 55802U 23029G   26200.21030109  .00000165  00000+0  40932-3 0  9994",
    "line2": "2 55802  87.8953 283.3687 0001506 106.3220 253.8076 13.14504688163602"
  },
  {
    "name": "ONEWEB-0639",
    "noradId": "55803",
    "line1": "1 55803U 23029H   26200.25403826 -.00000183  00000+0 -48846-3 0  9993",
    "line2": "2 55803  87.9185 298.5907 0002737 116.3892 243.7522 13.19724598163138"
  },
  {
    "name": "ONEWEB-0640",
    "noradId": "55804",
    "line1": "1 55804U 23029J   26200.21982366  .00000276  00000+0  71082-3 0  9990",
    "line2": "2 55804  87.8953 283.3576 0001693 119.1697 240.9603 13.14503052163627"
  },
  {
    "name": "ONEWEB-0641",
    "noradId": "55805",
    "line1": "1 55805U 23029K   26200.24931851 -.00000043  00000+0 -14024-3 0  9994",
    "line2": "2 55805  87.9200 298.5834 0001921 104.4870 255.6476 13.19727396163145"
  },
  {
    "name": "ONEWEB-0642",
    "noradId": "55806",
    "line1": "1 55806U 23029L   26200.24457601  .00000069  00000+0  13960-3 0  9995",
    "line2": "2 55806  87.9187 298.5937 0002766 110.4071 249.7359 13.19726514163136"
  },
  {
    "name": "ONEWEB-0643",
    "noradId": "55807",
    "line1": "1 55807U 23029M   26200.18969519 -.00000154  00000+0 -45090-3 0  9991",
    "line2": "2 55807  87.8955 283.3509 0002700 103.9971 256.1459 13.14502808163596"
  },
  {
    "name": "ONEWEB-0644",
    "noradId": "55808",
    "line1": "1 55808U 23029N   26200.23984072  .00000069  00000+0  14056-3 0  9990",
    "line2": "2 55808  87.9183 298.5955 0002349 105.2324 254.9068 13.19726073163139"
  },
  {
    "name": "ONEWEB-0645",
    "noradId": "55809",
    "line1": "1 55809U 23029P   26200.26195129 -.00000004  00000+0 -43136-4 0  9994",
    "line2": "2 55809  87.9182 298.5885 0002081 112.3289 247.8065 13.19726357163136"
  },
  {
    "name": "ONEWEB-0646",
    "noradId": "55810",
    "line1": "1 55810U 23029Q   26200.20349756 -.00000005  00000+0 -45856-4 0  9999",
    "line2": "2 55810  87.9183 298.5998 0002259 104.5982 255.5401 13.19726689163110"
  },
  {
    "name": "ONEWEB-0648",
    "noradId": "55811",
    "line1": "1 55811U 23029R   26200.23409097  .00000226  00000+0  57613-3 0  9994",
    "line2": "2 55811  87.8967 283.3189 0002523 120.1707 239.9673 13.14503770163607"
  },
  {
    "name": "ONEWEB-0649",
    "noradId": "55812",
    "line1": "1 55812U 23029S   26200.22876770 -.00000121  00000+0 -33349-3 0  9996",
    "line2": "2 55812  87.9186 298.5930 0002119 107.6519 252.4845 13.19725207163153"
  },
  {
    "name": "ONEWEB-0650",
    "noradId": "55813",
    "line1": "1 55813U 23029T   26200.22403481 -.00000014  00000+0 -67151-4 0  9992",
    "line2": "2 55813  87.9183 298.5965 0002548 109.4832 250.6576 13.19725207163121"
  },
  {
    "name": "ONEWEB-0652",
    "noradId": "55814",
    "line1": "1 55814U 23029U   26200.21506596  .00000262  00000+0  67117-3 0  9997",
    "line2": "2 55814  87.8966 283.3295 0001943  93.6681 266.4671 13.14502856163570"
  },
  {
    "name": "ONEWEB-0653",
    "noradId": "55815",
    "line1": "1 55815U 23029V   26200.19920414 -.00000012  00000+0 -67044-4 0  9999",
    "line2": "2 55815  87.8966 283.3307 0001945 100.0965 260.0384 13.14502382163604"
  },
  {
    "name": "ONEWEB-0654",
    "noradId": "55816",
    "line1": "1 55816U 23029W   26200.19444442 -.00000044  00000+0 -15373-3 0  9994",
    "line2": "2 55816  87.8965 283.3278 0001771  92.5334 267.5999 13.14502608163620"
  }
]